{
  "norad_id": 66944,
  "name": "STARLINK-36112",
  "history": [
    {
      "epoch": "2026-03-28T19:50:26.050560Z",
      "apogee_km": 476.0107117554471,
      "perigee_km": 474.3153423947506,
      "latitude_deg": 4.331134197972095e-05,
      "longitude_deg": 145.9264291313599,
      "height_km": 475.9205028614658,
      "semi_major_axis_km": 6853.300027075099,
      "eccentricity": 0.00012369,
      "inclination_deg": 53.1598,
      "raan_deg": 269.7765,
      "arg_perigee_deg": 80.4492,
      "mean_anomaly_deg": 279.6649,
      "mean_motion_rev_day": 15.3021743
    },
    {
      "epoch": "2026-03-29T05:14:45.356928Z",
      "apogee_km": 476.184844170024,
      "perigee_km": 474.194912177677,
      "latitude_deg": 1.7133345304051415e-05,
      "longitude_deg": 2.6383019423599188,
      "height_km": 476.1503595688159,
      "semi_major_axis_km": 6853.32687817385,
      "eccentricity": 0.00014518,
      "inclination_deg": 53.1609,
      "raan_deg": 267.9551,
      "arg_perigee_deg": 93.6048,
      "mean_anomaly_deg": 266.5119,
      "mean_motion_rev_day": 15.30208437
    }
  ]
}